{"type": "FeatureCollection", "features": [ {"type": "Feature", "properties": {"norad_id": 34962, "name": "COSMOS 2251 DEB", "group": "cosmos-2251-debris", "lat": 70.89241707180493, "lon": -51.05292199492723, "alt_km": 742.5981371973303, "timestamp": "2025-12-17T09:00:17.543413+00:00", "meta": {"OBJECT_NAME": "COSMOS 2251 DEB", "OBJECT_ID": "1993-036AER", "EPOCH": "2025-12-16T14:16:58.944288", "MEAN_MOTION": 14.4652884, "ECCENTRICITY": 0.0018797, "INCLINATION": 74.029, "RA_OF_ASC_NODE": 186.1625, "ARG_OF_PERICENTER": 299.0905, "MEAN_ANOMALY": 60.8371, "EPHEMERIS_TYPE": 0, "CLASSIFICATION_TYPE": "U", "NORAD_CAT_ID": 34962, "ELEMENT_SET_NO": 999, "REV_AT_EPOCH": 87634, "BSTAR": 0.00032902172, "MEAN_MOTION_DOT": 1.16e-05, "MEAN_MOTION_DDOT": 0}, "tle": {"line1": "1 34962U 93036AER 25350.59512667  .00001160  00000+0  32902-3 0  9997", "line2": "2 34962  74.0290 186.1625 0018797 299.0905  60.8371 14.46528840876348"}}, "geometry": {"type": "Point", "coordinates": [-51.05292199492723, 70.89241707180493]}}, {"type": "Feature", "properties": {"norad_id": 34963, "name": "COSMOS 2251 DEB", "group": "cosmos-2251-debris", "lat": 68.17828383276341, "lon": 79.20763540802332, "alt_km": 742.2649506365688, "timestamp": "2025-12-17T09:00:17.543422+00:00", "meta": {"OBJECT_NAME": "COSMOS 2251 DEB", "OBJECT_ID": "1993-036AES", "EPOCH": "2025-12-16T12:48:14.279904", "MEAN_MOTION": 14.51120475, "ECCENTRICITY": 0.00424377, "INCLINATION": 74.1721, "RA_OF_ASC_NODE": 35.6659, "ARG_OF_PERICENTER": 231.5501, "MEAN_ANOMALY": 128.1849, "EPHEMERIS_TYPE": 0, "CLASSIFICATION_TYPE": "U", "NORAD_CAT_ID": 34963, "ELEMENT_SET_NO": 999, "REV_AT_EPOCH": 86856, "BSTAR": 0.00092647557, "MEAN_MOTION_DOT": 3.691e-05, "MEAN_MOTION_DDOT": 0}, "tle": {"line1": "1 34963U 93036AES 25350.53349861  .00003691  00000+0  92648-3 0  9990", "line2": "2 34963  74.1721  35.6659 0042437 231.5501 128.1849 14.51120475868566"}}, "geometry": {"type": "Point", "coordinates": [79.20763540802332, 68.17828383276341]}}, {"type": "Feature", "properties": {"norad_id": 34964, "name": "COSMOS 2251 DEB", "group": "cosmos-2251-debris", "lat": -24.902762289873202, "lon": -27.897204629599287, "alt_km": 1008.0592413748282, "timestamp": "2025-12-17T09:00:17.543432+00:00", "meta": {"OBJECT_NAME": "COSMOS 2251 DEB", "OBJECT_ID": "1993-036AET", "EPOCH": "2025-12-16T07:25:11.963136", "MEAN_MOTION": 14.00622225, "ECCENTRICITY": 0.02124895, "INCLINATION": 73.9715, "RA_OF_ASC_NODE": 341.6266, "ARG_OF_PERICENTER": 199.3013, "MEAN_ANOMALY": 159.9987, "EPHEMERIS_TYPE": 0, "CLASSIFICATION_TYPE": "U", "NORAD_CAT_ID": 34964, "ELEMENT_SET_NO": 999, "REV_AT_EPOCH": 84528, "BSTAR": 0.00096810402, "MEAN_MOTION_DOT": 1.727e-05, "MEAN_MOTION_DDOT": 0}, "tle": {"line1": "1 34964U 93036AET 25350.30916624  .00001727  00000+0  96810-3 0  9996", "line2": "2 34964  73.9715 341.6266 0212489 199.3013 159.9987 14.00622225845289"}}, "geometry": {"type": "Point", "coordinates": [-27.897204629599287, -24.902762289873202]}}, {"type": "Feature", "properties": {"norad_id": 34965, "name": "COSMOS 2251 DEB", "group": "cosmos-2251-debris", "lat": 52.81114497458938, "lon": -82.3496801041169, "alt_km": 734.5080913185911, "timestamp": "2025-12-17T09:00:17.543442+00:00", "meta": {"OBJECT_NAME": "COSMOS 2251 DEB", "OBJECT_ID": "1993-036AEU", "EPOCH": "2025-12-13T03:20:09.825504", "MEAN_MOTION": 14.48709196, "ECCENTRICITY": 0.00265546, "INCLINATION": 74.0514, "RA_OF_ASC_NODE": 127.7194, "ARG_OF_PERICENTER": 255.0904, "MEAN_ANOMALY": 104.7315, "EPHEMERIS_TYPE": 0, "CLASSIFICATION_TYPE": "U", "NORAD_CAT_ID": 34965, "ELEMENT_SET_NO": 999, "REV_AT_EPOCH": 87119, "BSTAR": 0.00058289093, "MEAN_MOTION_DOT": 2.18e-05, "MEAN_MOTION_DDOT": 0}, "tle": {"line1": "1 34965U 93036AEU 25347.13900261  .00002180  00000+0  58289-3 0  9996", "line2": "2 34965  74.0514 127.7194 0026554 255.0904 104.7315 14.48709196871194"}}, "geometry": {"type": "Point", "coordinates": [-82.3496801041169, 52.81114497458938]}}, {"type": "Feature", "properties": {"norad_id": 34967, "name": "COSMOS 2251 DEB", "group": "cosmos-2251-debris", "lat": -37.62346986173379, "lon": -127.5683539772973, "alt_km": 740.8781972497636, "timestamp": "2025-12-17T09:00:17.543453+00:00", "meta": {"OBJECT_NAME": "COSMOS 2251 DEB", "OBJECT_ID": "1993-036AEW", "EPOCH": "2025-12-13T00:27:20.673792", "MEAN_MOTION": 14.44269018, "ECCENTRICITY": 0.00380101, "INCLINATION": 73.9933, "RA_OF_ASC_NODE": 253.3374, "ARG_OF_PERICENTER": 39.5345, "MEAN_ANOMALY": 320.8573, "EPHEMERIS_TYPE": 0, "CLASSIFICATION_TYPE": "U", "NORAD_CAT_ID": 34967, "ELEMENT_SET_NO": 999, "REV_AT_EPOCH": 64961, "BSTAR": 0.0011451852, "MEAN_MOTION_DOT": 3.946e-05, "MEAN_MOTION_DDOT": 0}, "tle": {"line1": "1 34967U 93036AEW 25347.01898928  .00003946  00000+0  11452-2 0  9992", "line2": "2 34967  73.9933 253.3374 0038010  39.5345 320.8573 14.44269018649616"}}, "geometry": {"type": "Point", "coordinates": [-127.5683539772973, -37.62346986173379]}}, {"type": "Feature", "properties": {"norad_id": 34968, "name": "COSMOS 2251 DEB", "group": "cosmos-2251-debris", "lat": 64.39942991508137, "lon": -85.08648450081833, "alt_km": 669.3383051696355, "timestamp": "2025-12-17T09:00:17.543463+00:00", "meta": {"OBJECT_NAME": "COSMOS 2251 DEB", "OBJECT_ID": "1993-036AEX", "EPOCH": "2025-12-16T09:39:30.495456", "MEAN_MOTION": 14.59413267, "ECCENTRICITY": 0.00867772, "INCLINATION": 74.0387, "RA_OF_ASC_NODE": 240.0877, "ARG_OF_PERICENTER": 359.5068, "MEAN_ANOMALY": 0.5996, "EPHEMERIS_TYPE": 0, "CLASSIFICATION_TYPE": "U", "NORAD_CAT_ID": 34968, "ELEMENT_SET_NO": 999, "REV_AT_EPOCH": 88531, "BSTAR": 0.00013974875, "MEAN_MOTION_DOT": 6.65e-06, "MEAN_MOTION_DDOT": 0}, "tle": {"line1": "1 34968U 93036AEX 25350.40243629  .00000665  00000+0  13975-3 0  9990", "line2": "2 34968  74.0387 240.0877 0086777 359.5068   0.5996 14.59413267885316"}}, "geometry": {"type": "Point", "coordinates": [-85.08648450081833, 64.39942991508137]}}, {"type": "Feature", "properties": {"norad_id": 34969, "name": "COSMOS 2251 DEB", "group": "cosmos-2251-debris", "lat": 61.338498083777644, "lon": 46.30408994754841, "alt_km": 769.0954705322329, "timestamp": "2025-12-17T09:00:17.543473+00:00", "meta": {"OBJECT_NAME": "COSMOS 2251 DEB", "OBJECT_ID": "1993-036AEY", "EPOCH": "2025-12-15T18:08:26.126880", "MEAN_MOTION": 14.32260529, "ECCENTRICITY": 0.00734759, "INCLINATION": 74.0142, "RA_OF_ASC_NODE": 17.6317, "ARG_OF_PERICENTER": 150.1137, "MEAN_ANOMALY": 210.4241, "EPHEMERIS_TYPE": 0, "CLASSIFICATION_TYPE": "U", "NORAD_CAT_ID": 34969, "ELEMENT_SET_NO": 999, "REV_AT_EPOCH": 65180, "BSTAR": 0.00024953546, "MEAN_MOTION_DOT": 6.68e-06, "MEAN_MOTION_DDOT": 0}, "tle": {"line1": "1 34969U 93036AEY 25349.75585795  .00000668  00000+0  24954-3 0  9992", "line2": "2 34969  74.0142  17.6317 0073475 150.1137 210.4241 14.32260529651808"}}, "geometry": {"type": "Point", "coordinates": [46.30408994754841, 61.338498083777644]}}, {"type": "Feature", "properties": {"norad_id": 34971, "name": "COSMOS 2251 DEB", "group": "cosmos-2251-debris", "lat": 62.51800046704754, "lon": -50.27384967387789, "alt_km": 686.3831576785005, "timestamp": "2025-12-17T09:00:17.543507+00:00", "meta": {"OBJECT_NAME": "COSMOS 2251 DEB", "OBJECT_ID": "1993-036AFA", "EPOCH": "2025-12-16T13:44:10.461120", "MEAN_MOTION": 14.55639723, "ECCENTRICITY": 0.00694632, "INCLINATION": 73.9787, "RA_OF_ASC_NODE": 277.721, "ARG_OF_PERICENTER": 142.4374, "MEAN_ANOMALY": 40.2269, "EPHEMERIS_TYPE": 0, "CLASSIFICATION_TYPE": "U", "NORAD_CAT_ID": 34971, "ELEMENT_SET_NO": 999, "REV_AT_EPOCH": 66228, "BSTAR": 0.00015151629, "MEAN_MOTION_DOT": 6.53e-06, "MEAN_MOTION_DDOT": 0}, "tle": {"line1": "1 34971U 93036AFA 25350.57234330  .00000653  00000+0  15152-3 0  9997", "line2": "2 34971  73.9787 277.7210 0069463 142.4374  40.2269 14.55639723662288"}}, "geometry": {"type": "Point", "coordinates": [-50.27384967387789, 62.51800046704754]}}, {"type": "Feature", "properties": {"norad_id": 34972, "name": "COSMOS 2251 DEB", "group": "cosmos-2251-debris", "lat": -61.81996915018688, "lon": -106.78552859050548, "alt_km": 642.5315250792983, "timestamp": "2025-12-17T09:00:17.543518+00:00", "meta": {"OBJECT_NAME": "COSMOS 2251 DEB", "OBJECT_ID": "1993-036AFB", "EPOCH": "2025-12-15T10:19:31.579968", "MEAN_MOTION": 14.72931379, "ECCENTRICITY": 0.00334754, "INCLINATION": 73.9887, "RA_OF_ASC_NODE": 44.6018, "ARG_OF_PERICENTER": 203.2448, "MEAN_ANOMALY": 173.7883, "EPHEMERIS_TYPE": 0, "CLASSIFICATION_TYPE": "U", "NORAD_CAT_ID": 34972, "ELEMENT_SET_NO": 999, "REV_AT_EPOCH": 87690, "BSTAR": 0.00082603298, "MEAN_MOTION_DOT": 5.315e-05, "MEAN_MOTION_DDOT": 0}, "tle": {"line1": "1 34972U 93036AFB 25349.43022662  .00005315  00000+0  82603-3 0  9999", "line2": "2 34972  73.9887  44.6018 0033475 203.2448 173.7883 14.72931379876900"}}, "geometry": {"type": "Point", "coordinates": [-106.78552859050548, -61.81996915018688]}}, {"type": "Feature", "properties": {"norad_id": 34976, "name": "COSMOS 2251 DEB", "group": "cosmos-2251-debris", "lat": 39.88542475844515, "lon": -49.002213556529036, "alt_km": 619.0318802378661, "timestamp": "2025-12-17T09:00:17.543529+00:00", "meta": {"OBJECT_NAME": "COSMOS 2251 DEB", "OBJECT_ID": "1993-036AFF", "EPOCH": "2025-12-16T21:41:30.434208", "MEAN_MOTION": 14.76659801, "ECCENTRICITY": 0.00478076, "INCLINATION": 74.0571, "RA_OF_ASC_NODE": 298.0987, "ARG_OF_PERICENTER": 343.9713, "MEAN_ANOMALY": 72.6765, "EPHEMERIS_TYPE": 0, "CLASSIFICATION_TYPE": "U", "NORAD_CAT_ID": 34976, "ELEMENT_SET_NO": 999, "REV_AT_EPOCH": 88335, "BSTAR": 0.0012885114, "MEAN_MOTION_DOT": 9.159e-05, "MEAN_MOTION_DDOT": 0}, "tle": {"line1": "1 34976U 93036AFF 25350.90382447  .00009159  00000+0  12885-2 0  9991", "line2": "2 34976  74.0571 298.0987 0047807 343.9713  72.6765 14.76659801883351"}}, "geometry": {"type": "Point", "coordinates": [-49.002213556529036, 39.88542475844515]}}]}